GLOBALSTAR M094         
1 39074U 13005C   25090.57634647 -.00000120  00000+0 -91170-4 0  9996
2 39074  51.9962  58.4151 0000693  84.8384 275.2562 12.62269363562578
GLOBALSTAR M096         
1 39075U 13005D   25090.58961059 -.00000102  00000+0  11873-4 0  9999
2 39075  52.0055 106.8313 0000592  86.9117 273.1817 12.62269949561846
GLOBALSTAR M078         
1 39076U 13005E   25090.56269347 -.00000159  00000+0 -30908-3 0  9991
2 39076  51.9872 191.5266 0000949  43.5745 316.5197 12.62259183560113
GLOBALSTAR M095         
1 39077U 13005F   25090.58941549 -.00000065  00000+0  21373-3 0  9996
2 39077  51.9791 188.6822 0000916  81.7194 278.3776 12.62268359559970
GLOBALSTAR M087         
1 52888U 22064A   25090.38251583 -.00000072  00000+0  17714-3 0  9998
2 52888  51.9812 330.7179 0000864  77.3868 282.7095 12.62270120135214
